{
  "type": "FeatureCollection",
  "features": [
    {
      "type": "Feature",
      "properties": {
        "norad_id": 66647,
        "name": "COSMOS 2597 (RODNIK-S 22)",
        "group": "last-30-days",
        "lat": 12.370139995581027,
        "lon": -80.73532611518269,
        "alt_km": 1502.3084906737467,
        "timestamp": "2025-12-26T23:26:40.919823+00:00",
        "meta_object_name": "COSMOS 2597 (RODNIK-S 22)",
        "meta_object_id": "2025-273A",
        "meta_epoch": "2025-12-26T17:34:39.061056",
        "meta_mean_motion": 12.41952322,
        "meta_eccentricity": 0.0007601,
        "meta_inclination": 82.4993,
        "meta_ra_of_asc_node": 277.7608,
        "meta_arg_of_pericenter": 252.9766,
        "meta_mean_anomaly": 107.048,
        "meta_ephemeris_type": 0,
        "meta_classification_type": "U",
        "meta_norad_cat_id": 66647,
        "meta_element_set_no": 999,
        "meta_rev_at_epoch": 387,
        "meta_bstar": 0.00012902,
        "meta_mean_motion_dot": 2.7e-07,
        "meta_mean_motion_ddot": 0,
        "tle_line1": "1 66647U 25273A   25360.73239654  .00000027  00000+0  12902-3 0  9998",
        "tle_line2": "2 66647  82.4993 277.7608 0007601 252.9766 107.0480 12.41952322  3873"
      },
      "geometry": {
        "type": "Point",
        "coordinates": [
          -80.73532611518269,
          12.370139995581027
        ]
      }
    },
    {
      "type": "Feature",
      "properties": {
        "norad_id": 66648,
        "name": "COSMOS 2598 (RODNIK-S 23)",
        "group": "last-30-days",
        "lat": 65.14671533677542,
        "lon": 81.07848679202175,
        "alt_km": 1486.448264025571,
        "timestamp": "2025-12-26T23:26:40.919837+00:00",
        "meta_object_name": "COSMOS 2598 (RODNIK-S 23)",
        "meta_object_id": "2025-273B",
        "meta_epoch": "2025-12-26T18:58:17.994720",
        "meta_mean_motion": 12.43233707,
        "meta_eccentricity": 0.0008248,
        "meta_inclination": 82.5032,
        "meta_ra_of_asc_node": 277.7088,
        "meta_arg_of_pericenter": 203.3899,
        "meta_mean_anomaly": 156.6807,
        "meta_ephemeris_type": 0,
        "meta_classification_type": "U",
        "meta_norad_cat_id": 66648,
        "meta_element_set_no": 999,
        "meta_rev_at_epoch": 388,
        "meta_bstar": 0.00014733,
        "meta_mean_motion_dot": 3e-07,
        "meta_mean_motion_ddot": 0,
        "tle_line1": "1 66648U 25273B   25360.79048605  .00000030  00000+0  14733-3 0  9997",
        "tle_line2": "2 66648  82.5032 277.7088 0008248 203.3899 156.6807 12.43233707  3881"
      },
      "geometry": {
        "type": "Point",
        "coordinates": [
          81.07848679202175,
          65.14671533677542
        ]
      }
    },
    {
      "type": "Feature",
      "properties": {
        "norad_id": 66649,
        "name": "COSMOS 2599 (RODNIK-S 24)",
        "group": "last-30-days",
        "lat": -46.609227095980245,
        "lon": -90.35740615328542,
        "alt_km": 1506.879456303931,
        "timestamp": "2025-12-26T23:26:40.919850+00:00",
        "meta_object_name": "COSMOS 2599 (RODNIK-S 24)",
        "meta_object_id": "2025-273C",
        "meta_epoch": "2025-12-26T17:53:39.499584",
        "meta_mean_motion": 12.41152402,
        "meta_eccentricity": 0.0006348,
        "meta_inclination": 82.505,
        "meta_ra_of_asc_node": 277.7899,
        "meta_arg_of_pericenter": 240.9092,
        "meta_mean_anomaly": 119.1352,
        "meta_ephemeris_type": 0,
        "meta_classification_type": "U",
        "meta_norad_cat_id": 66649,
        "meta_element_set_no": 999,
        "meta_rev_at_epoch": 387,
        "meta_bstar": 0.0002443,
        "meta_mean_motion_dot": 4.3e-07,
        "meta_mean_motion_ddot": 0,
        "tle_line1": "1 66649U 25273C   25360.74559606  .00000043  00000+0  24430-3 0  9990",
        "tle_line2": "2 66649  82.5050 277.7899 0006348 240.9092 119.1352 12.41152402  3871"
      },
      "geometry": {
        "type": "Point",
        "coordinates": [
          -90.35740615328542,
          -46.609227095980245
        ]
      }
    },
    {
      "type": "Feature",
      "properties": {
        "norad_id": 66650,
        "name": "BEE-1000",
        "group": "last-30-days",
        "lat": 18.66255345487585,
        "lon": -74.72897868521795,
        "alt_km": 600.7569631118458,
        "timestamp": "2025-12-26T23:26:40.919861+00:00",
        "meta_object_name": "BEE-1000",
        "meta_object_id": "2025-274A",
        "meta_epoch": "2025-12-26T16:55:14.687040",
        "meta_mean_motion": 14.91708342,
        "meta_eccentricity": 0.0011225,
        "meta_inclination": 97.7406,
        "meta_ra_of_asc_node": 287.6373,
        "meta_arg_of_pericenter": 200.3301,
        "meta_mean_anomaly": 159.7472,
        "meta_ephemeris_type": 0,
        "meta_classification_type": "U",
        "meta_norad_cat_id": 66650,
        "meta_element_set_no": 999,
        "meta_rev_at_epoch": 448,
        "meta_bstar": 0.00017603,
        "meta_mean_motion_dot": 1.717e-05,
        "meta_mean_motion_ddot": 0,
        "tle_line1": "1 66650U 25274A   25360.70503110  .00001717  00000+0  17603-3 0  9991",
        "tle_line2": "2 66650  97.7406 287.6373 0011225 200.3301 159.7472 14.91708342  4484"
      },
      "geometry": {
        "type": "Point",
        "coordinates": [
          -74.72897868521795,
          18.66255345487585
        ]
      }
    },
    {
      "type": "Feature",
      "properties": {
        "norad_id": 66651,
        "name": "2025-274B",
        "group": "last-30-days",
        "lat": 31.8116326887821,
        "lon": -76.93120587757289,
        "alt_km": 597.9339350681112,
        "timestamp": "2025-12-26T23:26:40.919873+00:00",
        "meta_object_name": "2025-274B",
        "meta_object_id": "2025-274B",
        "meta_epoch": "2025-12-26T18:28:18.242112",
        "meta_mean_motion": 14.91901292,
        "meta_eccentricity": 0.0011426,
        "meta_inclination": 97.7399,
        "meta_ra_of_asc_node": 287.7049,
        "meta_arg_of_pericenter": 198.3459,
        "meta_mean_anomaly": 161.7349,
        "meta_ephemeris_type": 0,
        "meta_classification_type": "U",
        "meta_norad_cat_id": 66651,
        "meta_element_set_no": 999,
        "meta_rev_at_epoch": 449,
        "meta_bstar": 0.00039041,
        "meta_mean_motion_dot": 3.897e-05,
        "meta_mean_motion_ddot": 0,
        "tle_line1": "1 66651U 25274B   25360.76965558  .00003897  00000+0  39041-3 0  9997",
        "tle_line2": "2 66651  97.7399 287.7049 0011426 198.3459 161.7349 14.91901292  4496"
      },
      "geometry": {
        "type": "Point",
        "coordinates": [
          -76.93120587757289,
          31.8116326887821
        ]
      }
    },
    {
      "type": "Feature",
      "properties": {
        "norad_id": 66652,
        "name": "2025-274C",
        "group": "last-30-days",
        "lat": 44.08907752593806,
        "lon": -79.65602286196535,
        "alt_km": 595.202116596316,
        "timestamp": "2025-12-26T23:26:40.919884+00:00",
        "meta_object_name": "2025-274C",
        "meta_object_id": "2025-274C",
        "meta_epoch": "2025-12-26T18:24:58.553568",
        "meta_mean_motion": 14.91984941,
        "meta_eccentricity": 0.001094,
        "meta_inclination": 97.7406,
        "meta_ra_of_asc_node": 287.7096,
        "meta_arg_of_pericenter": 205.0107,
        "meta_mean_anomaly": 155.0583,
        "meta_ephemeris_type": 0,
        "meta_classification_type": "U",
        "meta_norad_cat_id": 66652,
        "meta_element_set_no": 999,
        "meta_rev_at_epoch": 449,
        "meta_bstar": 0.00032448,
        "meta_mean_motion_dot": 3.235e-05,
        "meta_mean_motion_ddot": 0,
        "tle_line1": "1 66652U 25274C   25360.76734437  .00003235  00000+0  32448-3 0  9998",
        "tle_line2": "2 66652  97.7406 287.7096 0010940 205.0107 155.0583 14.91984941  4492"
      },
      "geometry": {
        "type": "Point",
        "coordinates": [
          -79.65602286196535,
          44.08907752593806
        ]
      }
    },
    {
      "type": "Feature",
      "properties": {
        "norad_id": 66653,
        "name": "2025-274D",
        "group": "last-30-days",
        "lat": 44.36821693937966,
        "lon": -79.73088093112034,
        "alt_km": 595.6564571514964,
        "timestamp": "2025-12-26T23:26:40.919895+00:00",
        "meta_object_name": "2025-274D",
        "meta_object_id": "2025-274D",
        "meta_epoch": "2025-12-26T18:24:53.684064",
        "meta_mean_motion": 14.91972672,
        "meta_eccentricity": 0.0011933,
        "meta_inclination": 97.7403,
        "meta_ra_of_asc_node": 287.709,
        "meta_arg_of_pericenter": 201.7877,
        "meta_mean_anomaly": 158.2836,
        "meta_ephemeris_type": 0,
        "meta_classification_type": "U",
        "meta_norad_cat_id": 66653,
        "meta_element_set_no": 999,
        "meta_rev_at_epoch": 449,
        "meta_bstar": 0.00025148,
        "meta_mean_motion_dot": 2.494e-05,
        "meta_mean_motion_ddot": 0,
        "tle_line1": "1 66653U 25274D   25360.76728801  .00002494  00000+0  25148-3 0  9992",
        "tle_line2": "2 66653  97.7403 287.7090 0011933 201.7877 158.2836 14.91972672  4498"
      },
      "geometry": {
        "type": "Point",
        "coordinates": [
          -79.73088093112034,
          44.36821693937966
        ]
      }
    }
  ]
}